[{"OBJECT_NAME":"WORLDVIEW-3 (WV-3)","OBJECT_ID":"2014-048A","EPOCH":"2026-03-05T17:34:21.240192","MEAN_MOTION":14.84824481,"ECCENTRICITY":4.14e-5,"INCLINATION":97.864,"RA_OF_ASC_NODE":140.9774,"ARG_OF_PERICENTER":10.5764,"MEAN_ANOMALY":349.5459,"EPHEMERIS_TYPE":0,"CLASSIFICATION_TYPE":"U","NORAD_CAT_ID":40115,"ELEMENT_SET_NO":999,"REV_AT_EPOCH":62655,"BSTAR":0.00017873,"MEAN_MOTION_DOT":1.464e-5,"MEAN_MOTION_DDOT":0},{"OBJECT_NAME":"GAOFEN-2","OBJECT_ID":"2014-049A","EPOCH":"2026-03-05T19:02:48.626304","MEAN_MOTION":14.80763821,"ECCENTRICITY":0.0006766,"INCLINATION":98.0231,"RA_OF_ASC_NODE":129.0538,"ARG_OF_PERICENTER":198.5468,"MEAN_ANOMALY":161.5498,"EPHEMERIS_TYPE":0,"CLASSIFICATION_TYPE":"U","NORAD_CAT_ID":40118,"ELEMENT_SET_NO":999,"REV_AT_EPOCH":62393,"BSTAR":0.00012995,"MEAN_MOTION_DOT":9.48e-6,"MEAN_MOTION_DDOT":0},{"OBJECT_NAME":"YAOGAN-21","OBJECT_ID":"2014-053A","EPOCH":"2026-03-05T19:03:06.290784","MEAN_MOTION":15.24855631,"ECCENTRICITY":0.0010126,"INCLINATION":97.1619,"RA_OF_ASC_NODE":109.5039,"ARG_OF_PERICENTER":98.0145,"MEAN_ANOMALY":262.2243,"EPHEMERIS_TYPE":0,"CLASSIFICATION_TYPE":"U","NORAD_CAT_ID":40143,"ELEMENT_SET_NO":999,"REV_AT_EPOCH":63919,"BSTAR":0.00025478,"MEAN_MOTION_DOT":6.271e-5,"MEAN_MOTION_DDOT":0},{"OBJECT_NAME":"YAOGAN-22","OBJECT_ID":"2014-063A","EPOCH":"2026-03-05T16:19:22.901952","MEAN_MOTION":13.15526826,"ECCENTRICITY":0.0006711,"INCLINATION":100.7529,"RA_OF_ASC_NODE":214.3026,"ARG_OF_PERICENTER":66.6383,"MEAN_ANOMALY":293.5434,"EPHEMERIS_TYPE":0,"CLASSIFICATION_TYPE":"U","NORAD_CAT_ID":40275,"ELEMENT_SET_NO":999,"REV_AT_EPOCH":54620,"BSTAR":0.00010684,"MEAN_MOTION_DOT":-6.0e-8,"MEAN_MOTION_DDOT":0},{"OBJECT_NAME":"ASNARO","OBJECT_ID":"2014-070A","EPOCH":"2026-03-05T17:00:53.821728","MEAN_MOTION":15.19691283,"ECCENTRICITY":0.0007228,"INCLINATION":97.3519,"RA_OF_ASC_NODE":143.576,"ARG_OF_PERICENTER":154.471,"MEAN_ANOMALY":205.6883,"EPHEMERIS_TYPE":0,"CLASSIFICATION_TYPE":"U","NORAD_CAT_ID":40298,"ELEMENT_SET_NO":999,"REV_AT_EPOCH":62829,"BSTAR":0.00060621,"MEAN_MOTION_DOT":0.00012894,"MEAN_MOTION_DDOT":0},{"OBJECT_NAME":"YAOGAN-24","OBJECT_ID":"2014-072A","EPOCH":"2026-03-05T18:42:27.871200","MEAN_MOTION":14.76220034,"ECCENTRICITY":0.0012156,"INCLINATION":98.1299,"RA_OF_ASC_NODE":201.3487,"ARG_OF_PERICENTER":231.9443,"MEAN_ANOMALY":128.067,"EPHEMERIS_TYPE":0,"CLASSIFICATION_TYPE":"U","NORAD_CAT_ID":40310,"ELEMENT_SET_NO":999,"REV_AT_EPOCH":60846,"BSTAR":0.00019019,"MEAN_MOTION_DOT":1.265e-5,"MEAN_MOTION_DDOT":0},{"OBJECT_NAME":"CBERS 4","OBJECT_ID":"2014-079A","EPOCH":"2026-03-05T17:45:32.276160","MEAN_MOTION":14.35411776,"ECCENTRICITY":7.52e-5,"INCLINATION":98.3489,"RA_OF_ASC_NODE":124.879,"ARG_OF_PERICENTER":55.3381,"MEAN_ANOMALY":304.7876,"EPHEMERIS_TYPE":0,"CLASSIFICATION_TYPE":"U","NORAD_CAT_ID":40336,"ELEMENT_SET_NO":999,"REV_AT_EPOCH":58911,"BSTAR":6.2171e-5,"MEAN_MOTION_DOT":1.36e-6,"MEAN_MOTION_DDOT":0},{"OBJECT_NAME":"YAOGAN-26","OBJECT_ID":"2014-088A","EPOCH":"2026-03-05T18:46:09.916608","MEAN_MOTION":15.42990917,"ECCENTRICITY":0.000728,"INCLINATION":97.0664,"RA_OF_ASC_NODE":67.7218,"ARG_OF_PERICENTER":74.0652,"MEAN_ANOMALY":286.1398,"EPHEMERIS_TYPE":0,"CLASSIFICATION_TYPE":"U","NORAD_CAT_ID":40362,"ELEMENT_SET_NO":999,"REV_AT_EPOCH":62173,"BSTAR":0.00049265,"MEAN_MOTION_DOT":0.00021674,"MEAN_MOTION_DDOT":0},{"OBJECT_NAME":"SMAP","OBJECT_ID":"2015-003A","EPOCH":"2026-03-05T18:19:36.753312","MEAN_MOTION":14.63333335,"ECCENTRICITY":0.000129,"INCLINATION":98.1311,"RA_OF_ASC_NODE":73.3071,"ARG_OF_PERICENTER":112.6447,"MEAN_ANOMALY":247.4892,"EPHEMERIS_TYPE":0,"CLASSIFICATION_TYPE":"U","NORAD_CAT_ID":40376,"ELEMENT_SET_NO":999,"REV_AT_EPOCH":59249,"BSTAR":0.00016624,"MEAN_MOTION_DOT":8.11e-6,"MEAN_MOTION_DDOT":0},{"OBJECT_NAME":"KOMPSAT-3A","OBJECT_ID":"2015-014A","EPOCH":"2026-03-05T18:45:58.382208","MEAN_MOTION":15.48492512,"ECCENTRICITY":0.0063032,"INCLINATION":97.6873,"RA_OF_ASC_NODE":49.0298,"ARG_OF_PERICENTER":191.6742,"MEAN_ANOMALY":168.3051,"EPHEMERIS_TYPE":0,"CLASSIFICATION_TYPE":"U","NORAD_CAT_ID":40536,"ELEMENT_SET_NO":999,"REV_AT_EPOCH":60578,"BSTAR":0.00049743,"MEAN_MOTION_DOT":0.00028596,"MEAN_MOTION_DDOT":0},{"OBJECT_NAME":"SENTINEL-2A","OBJECT_ID":"2015-028A","EPOCH":"2026-02-25T04:19:12.423360","MEAN_MOTION":14.30192923,"ECCENTRICITY":0.00543683,"INCLINATION":98.5024,"RA_OF_ASC_NODE":132.8928,"ARG_OF_PERICENTER":194.7437,"MEAN_ANOMALY":165.2162,"EPHEMERIS_TYPE":0,"CLASSIFICATION_TYPE":"U","NORAD_CAT_ID":40697,"ELEMENT_SET_NO":999,"REV_AT_EPOCH":55771,"BSTAR":7.6852184e-5,"MEAN_MOTION_DOT":1.59e-6,"MEAN_MOTION_DDOT":0},{"OBJECT_NAME":"GAOFEN-8","OBJECT_ID":"2015-030A","EPOCH":"2026-03-05T18:57:47.709792","MEAN_MOTION":15.42260925,"ECCENTRICITY":0.0009421,"INCLINATION":97.6928,"RA_OF_ASC_NODE":252.2198,"ARG_OF_PERICENTER":202.0296,"MEAN_ANOMALY":158.0547,"EPHEMERIS_TYPE":0,"CLASSIFICATION_TYPE":"U","NORAD_CAT_ID":40701,"ELEMENT_SET_NO":999,"REV_AT_EPOCH":59549,"BSTAR":0.00070004,"MEAN_MOTION_DOT":0.00030132,"MEAN_MOTION_DDOT":0},{"OBJECT_NAME":"CARBONITE 1 (CBNT-1)","OBJECT_ID":"2015-032D","EPOCH":"2026-03-05T18:37:37.865280","MEAN_MOTION":14.83197821,"ECCENTRICITY":0.0013263,"INCLINATION":97.6454,"RA_OF_ASC_NODE":247.212,"ARG_OF_PERICENTER":274.4136,"MEAN_ANOMALY":85.5563,"EPHEMERIS_TYPE":0,"CLASSIFICATION_TYPE":"U","NORAD_CAT_ID":40718,"ELEMENT_SET_NO":999,"REV_AT_EPOCH":57401,"BSTAR":0.00051789,"MEAN_MOTION_DOT":4.185e-5,"MEAN_MOTION_DDOT":0},{"OBJECT_NAME":"YAOGAN-27","OBJECT_ID":"2015-040A","EPOCH":"2026-03-05T19:00:45.343872","MEAN_MOTION":13.16065948,"ECCENTRICITY":0.0008929,"INCLINATION":100.1096,"RA_OF_ASC_NODE":55.6904,"ARG_OF_PERICENTER":92.5536,"MEAN_ANOMALY":267.66,"EPHEMERIS_TYPE":0,"CLASSIFICATION_TYPE":"U","NORAD_CAT_ID":40878,"ELEMENT_SET_NO":999,"REV_AT_EPOCH":50406,"BSTAR":0.00082587,"MEAN_MOTION_DOT":2.71e-6,"MEAN_MOTION_DDOT":0},{"OBJECT_NAME":"GAOFEN-9 01","OBJECT_ID":"2015-047A","EPOCH":"2026-03-05T17:56:14.667072","MEAN_MOTION":14.82670128,"ECCENTRICITY":0.0028804,"INCLINATION":97.6423,"RA_OF_ASC_NODE":105.0848,"ARG_OF_PERICENTER":118.1879,"MEAN_ANOMALY":242.2249,"EPHEMERIS_TYPE":0,"CLASSIFICATION_TYPE":"U","NORAD_CAT_ID":40894,"ELEMENT_SET_NO":999,"REV_AT_EPOCH":56486,"BSTAR":0.00019974,"MEAN_MOTION_DOT":1.571e-5,"MEAN_MOTION_DDOT":0},{"OBJECT_NAME":"YAOGAN-28","OBJECT_ID":"2015-064A","EPOCH":"2026-03-05T18:23:48.105600","MEAN_MOTION":15.25917551,"ECCENTRICITY":0.0010903,"INCLINATION":97.2897,"RA_OF_ASC_NODE":205.3461,"ARG_OF_PERICENTER":190.3053,"MEAN_ANOMALY":169.7963,"EPHEMERIS_TYPE":0,"CLASSIFICATION_TYPE":"U","NORAD_CAT_ID":41026,"ELEMENT_SET_NO":999,"REV_AT_EPOCH":57490,"BSTAR":0.00037098,"MEAN_MOTION_DOT":9.463e-5,"MEAN_MOTION_DDOT":0},{"OBJECT_NAME":"YAOGAN-29","OBJECT_ID":"2015-069A","EPOCH":"2026-03-05T17:54:26.941824","MEAN_MOTION":14.82988363,"ECCENTRICITY":0.0002112,"INCLINATION":98.0142,"RA_OF_ASC_NODE":93.1645,"ARG_OF_PERICENTER":42.1226,"MEAN_ANOMALY":318.0149,"EPHEMERIS_TYPE":0,"CLASSIFICATION_TYPE":"U","NORAD_CAT_ID":41038,"ELEMENT_SET_NO":999,"REV_AT_EPOCH":55529,"BSTAR":2.7722e-5,"MEAN_MOTION_DOT":1.71e-6,"MEAN_MOTION_DDOT":0}]
