WORLDVIEW-3 (WV-3)      
1 40115U 14048A   26064.73219028  .00001464  00000+0  17873-3 0  9991
2 40115  97.8640 140.9774 0000414  10.5764 349.5459 14.84824481626558
GAOFEN-2                
1 40118U 14049A   26064.79361836  .00000948  00000+0  12995-3 0  9992
2 40118  98.0231 129.0538 0006766 198.5468 161.5498 14.80763821623930
YAOGAN-21               
1 40143U 14053A   26064.79382281  .00006271  00000+0  25478-3 0  9997
2 40143  97.1619 109.5039 0010126  98.0145 262.2243 15.24855631639190
YAOGAN-22               
1 40275U 14063A   26064.68012618 -.00000006  00000+0  10684-3 0  9990
2 40275 100.7529 214.3026 0006711  66.6383 293.5434 13.15526826546205
ASNARO                  
1 40298U 14070A   26064.70895627  .00012894  00000+0  60621-3 0  9998
2 40298  97.3519 143.5760 0007228 154.4710 205.6883 15.19691283628290
YAOGAN-24               
1 40310U 14072A   26064.77948925  .00001265  00000+0  19019-3 0  9997
2 40310  98.1299 201.3487 0012156 231.9443 128.0670 14.76220034608461
CBERS 4                 
1 40336U 14079A   26064.73995690  .00000136  00000+0  62171-4 0  9993
2 40336  98.3489 124.8790 0000752  55.3381 304.7876 14.35411776589117
YAOGAN-26               
1 40362U 14088A   26064.78205922  .00021674  00000+0  49265-3 0  9997
2 40362  97.0664  67.7218 0007280  74.0652 286.1398 15.42990917621734
SMAP                    
1 40376U 15003A   26064.76361983  .00000811  00000+0  16624-3 0  9991
2 40376  98.1311  73.3071 0001290 112.6447 247.4892 14.63333335592492
KOMPSAT-3A              
1 40536U 15014A   26064.78192572  .00028596  00000+0  49743-3 0  9997
2 40536  97.6873  49.0298 0063032 191.6742 168.3051 15.48492512605787
SENTINEL-2A             
1 40697U 15028A   26056.18000490  .00000159  00000+0  76852-4 0  9999
2 40697  98.5024 132.8928 0054368 194.7437 165.2162 14.30192923557712
GAOFEN-8                
1 40701U 15030A   26064.79013553  .00030132  00000+0  70004-3 0  9994
2 40701  97.6928 252.2198 0009421 202.0296 158.0547 15.42260925595499
CARBONITE 1 (CBNT-1)    
1 40718U 15032D   26064.77613270  .00004185  00000+0  51789-3 0  9992
2 40718  97.6454 247.2120 0013263 274.4136  85.5563 14.83197821574010
YAOGAN-27               
1 40878U 15040A   26064.79219148  .00000271  00000+0  82587-3 0  9998
2 40878 100.1096  55.6904 0008929  92.5536 267.6600 13.16065948504068
GAOFEN-9 01             
1 40894U 15047A   26064.74739198  .00001571  00000+0  19974-3 0  9994
2 40894  97.6423 105.0848 0028804 118.1879 242.2249 14.82670128564864
YAOGAN-28               
1 41026U 15064A   26064.76652900  .00009463  00000+0  37098-3 0  9993
2 41026  97.2897 205.3461 0010903 190.3053 169.7963 15.25917551574909
YAOGAN-29               
1 41038U 15069A   26064.74614516  .00000171  00000+0  27722-4 0  9991
2 41038  98.0142  93.1645 0002112  42.1226 318.0149 14.82988363555297
